0 OPS 4682 DEB
1 19511U 65027AU  13281.60611876  .00000001  00000-0 -23308-4 0  2127
2 19511 090.2625 241.0879 0035215 013.9938 038.2201 12.96115500201192
0 OPS 4682 DEB
1 19511U 65027AU  13284.15520030  .00000666  00000-0  23075-2 0  2137
2 19511 090.2628 241.1492 0035025 007.4909 052.0975 12.96110662201525
0 OPS 4682 DEB
1 19511U 65027AU  13286.33719610  .00000712  00000-0  24690-2 0  2140
2 19511 090.2636 241.2021 0034878 001.9424 153.1153 12.96112849201800
0 OPS 4682 DEB
1 19511U 65027AU  13288.33843520  .00000315  00000-0  10775-2 0  2159
2 19511 090.2642 241.2505 0034709 356.6670 130.9176 12.96118989202068
0 OPS 4682 DEB
1 19511U 65027AU  13290.35268429 -.00000219  00000-0 -79219-3 0  2168
2 19511 090.2646 241.2991 0034550 351.5324 169.2866 12.96124846202324
0 OPS 4682 DEB
1 19511U 65027AU  13292.35905303 -.00000287  00000-0 -10325-2 0  2177
2 19511 090.2646 241.3478 0034395 346.3793 170.9696 12.96124696202585
0 OPS 4682 DEB
1 19511U 65027AU  13295.29210556  .00000426  00000-0  14671-2 0  2184
2 19511 090.2647 241.4197 0034122 338.8423 176.5781 12.96118679202962
